{"fetched_at":"2026-07-20T07:40:28.790Z","source":"https://celestrak.org/NORAD/elements/gp.php?GROUP=spire&FORMAT=JSON","constellation":"spire","records":[{"OBJECT_NAME":"LEMUR-1","OBJECT_ID":"2014-033AL","EPOCH":"2026-07-19T16:44:37.466304","CLASSIFICATION_TYPE":"U","MEAN_MOTION":14.85343875,"ECCENTRICITY":0.0047378,"INCLINATION":97.7915,"RA_OF_ASC_NODE":349.7893,"ARG_OF_PERICENTER":332.9845,"MEAN_ANOMALY":26.8905,"EPHEMERIS_TYPE":0,"NORAD_CAT_ID":40044,"ELEMENT_SET_NO":999,"REV_AT_EPOCH":65029,"BSTAR":0.000082651,"MEAN_MOTION_DOT":0.00000669,"MEAN_MOTION_DDOT":0},{"OBJECT_NAME":"LEMUR-2-GREENBERG","OBJECT_ID":"2017-042N","EPOCH":"2026-07-19T11:42:32.122656","CLASSIFICATION_TYPE":"U","MEAN_MOTION":15.32233564,"ECCENTRICITY":0.00074313,"INCLINATION":97.3839,"RA_OF_ASC_NODE":20.9886,"ARG_OF_PERICENTER":241.5042,"MEAN_ANOMALY":118.5452,"EPHEMERIS_TYPE":0,"NORAD_CAT_ID":42837,"ELEMENT_SET_NO":999,"REV_AT_EPOCH":49333,"BSTAR":0.00028369999,"MEAN_MOTION_DOT":0.00008759,"MEAN_MOTION_DDOT":0},{"OBJECT_NAME":"LEMUR-2-ANDIS","OBJECT_ID":"2017-042P","EPOCH":"2026-07-19T10:33:46.266912","CLASSIFICATION_TYPE":"U","MEAN_MOTION":15.36030642,"ECCENTRICITY":0.00074134,"INCLINATION":97.3691,"RA_OF_ASC_NODE":21.2418,"ARG_OF_PERICENTER":240.5981,"MEAN_ANOMALY":119.4524,"EPHEMERIS_TYPE":0,"NORAD_CAT_ID":42838,"ELEMENT_SET_NO":999,"REV_AT_EPOCH":49340,"BSTAR":0.00033770018,"MEAN_MOTION_DOT":0.00011782,"MEAN_MOTION_DDOT":0},{"OBJECT_NAME":"LEMUR-2-MONSON","OBJECT_ID":"2017-042Q","EPOCH":"2026-07-19T18:20:00.606624","CLASSIFICATION_TYPE":"U","MEAN_MOTION":15.28825454,"ECCENTRICITY":0.0005603,"INCLINATION":97.4102,"RA_OF_ASC_NODE":21.1846,"ARG_OF_PERICENTER":226.0215,"MEAN_ANOMALY":134.0563,"EPHEMERIS_TYPE":0,"NORAD_CAT_ID":42839,"ELEMENT_SET_NO":999,"REV_AT_EPOCH":49314,"BSTAR":0.00028045,"MEAN_MOTION_DOT":0.00007784,"MEAN_MOTION_DDOT":0},{"OBJECT_NAME":"LEMUR-2-FURIAUS","OBJECT_ID":"2017-042R","EPOCH":"2026-07-19T10:31:09.583104","CLASSIFICATION_TYPE":"U","MEAN_MOTION":15.31212862,"ECCENTRICITY":0.00057234,"INCLINATION":97.3788,"RA_OF_ASC_NODE":18.8215,"ARG_OF_PERICENTER":311.1861,"MEAN_ANOMALY":48.8887,"EPHEMERIS_TYPE":0,"NORAD_CAT_ID":42840,"ELEMENT_SET_NO":999,"REV_AT_EPOCH":49314,"BSTAR":0.00031005454,"MEAN_MOTION_DOT":0.00009277,"MEAN_MOTION_DDOT":0},{"OBJECT_NAME":"LEMUR-2-PETERG","OBJECT_ID":"2017-042S","EPOCH":"2026-07-19T10:38:36.824928","CLASSIFICATION_TYPE":"U","MEAN_MOTION":15.35124199,"ECCENTRICITY":0.00036319,"INCLINATION":97.4004,"RA_OF_ASC_NODE":25.5577,"ARG_OF_PERICENTER":202.2189,"MEAN_ANOMALY":157.8897,"EPHEMERIS_TYPE":0,"NORAD_CAT_ID":42841,"ELEMENT_SET_NO":999,"REV_AT_EPOCH":49338,"BSTAR":0.00031942597,"MEAN_MOTION_DOT":0.00010813,"MEAN_MOTION_DDOT":0},{"OBJECT_NAME":"LEMUR-2-DEMBITZ","OBJECT_ID":"2017-042T","EPOCH":"2026-07-19T18:50:12.824160","CLASSIFICATION_TYPE":"U","MEAN_MOTION":15.31193718,"ECCENTRICITY":0.0005174,"INCLINATION":97.3839,"RA_OF_ASC_NODE":22.2135,"ARG_OF_PERICENTER":252.9643,"MEAN_ANOMALY":107.1031,"EPHEMERIS_TYPE":0,"NORAD_CAT_ID":42842,"ELEMENT_SET_NO":999,"REV_AT_EPOCH":49333,"BSTAR":0.00030962,"MEAN_MOTION_DOT":0.00009257,"MEAN_MOTION_DDOT":0},{"OBJECT_NAME":"LEMUR-2-ZACHARY","OBJECT_ID":"2017-042W","EPOCH":"2026-07-19T19:41:55.525056","CLASSIFICATION_TYPE":"U","MEAN_MOTION":15.53002308,"ECCENTRICITY":0.0002901,"INCLINATION":97.358,"RA_OF_ASC_NODE":33.2166,"ARG_OF_PERICENTER":223.8802,"MEAN_ANOMALY":136.2221,"EPHEMERIS_TYPE":0,"NORAD_CAT_ID":42845,"ELEMENT_SET_NO":999,"REV_AT_EPOCH":49426,"BSTAR":0.00051576,"MEAN_MOTION_DOT":0.0003215,"MEAN_MOTION_DDOT":0},{"OBJECT_NAME":"LEMUR-2-AMANDA-SVANTE","OBJECT_ID":"2021-034B","EPOCH":"2026-07-19T18:00:24.972192","CLASSIFICATION_TYPE":"U","MEAN_MOTION":15.36130619,"ECCENTRICITY":0.0004806,"INCLINATION":97.574,"RA_OF_ASC_NODE":279.9385,"ARG_OF_PERICENTER":133.4502,"MEAN_ANOMALY":226.7142,"EPHEMERIS_TYPE":0,"NORAD_CAT_ID":48269,"ELEMENT_SET_NO":999,"REV_AT_EPOCH":28605,"BSTAR":0.00051134,"MEAN_MOTION_DOT":0.00017942,"MEAN_MOTION_DDOT":0},{"OBJECT_NAME":"LEMUR-2-SPECIAL-K","OBJECT_ID":"2021-034F","EPOCH":"2026-07-19T18:42:14.279616","CLASSIFICATION_TYPE":"U","MEAN_MOTION":15.76367989,"ECCENTRICITY":0.0006263,"INCLINATION":97.5623,"RA_OF_ASC_NODE":290.2833,"ARG_OF_PERICENTER":210.6848,"MEAN_ANOMALY":149.4051,"EPHEMERIS_TYPE":0,"NORAD_CAT_ID":48273,"ELEMENT_SET_NO":999,"REV_AT_EPOCH":28680,"BSTAR":0.0011782,"MEAN_MOTION_DOT":0.00189173,"MEAN_MOTION_DDOT":0},{"OBJECT_NAME":"LEMUR-2-EMBRIONOVIS","OBJECT_ID":"2023-084AQ","EPOCH":"2026-07-19T08:14:13.210944","CLASSIFICATION_TYPE":"U","MEAN_MOTION":15.38295857,"ECCENTRICITY":0.00086712,"INCLINATION":97.6331,"RA_OF_ASC_NODE":345.8022,"ARG_OF_PERICENTER":191.0814,"MEAN_ANOMALY":169.0241,"EPHEMERIS_TYPE":0,"NORAD_CAT_ID":56970,"ELEMENT_SET_NO":999,"REV_AT_EPOCH":17262,"BSTAR":0.00020526416,"MEAN_MOTION_DOT":0.00007667,"MEAN_MOTION_DDOT":0},{"OBJECT_NAME":"LEMUR-2-DEVERILL-M-T","OBJECT_ID":"2023-100F","EPOCH":"2026-07-19T13:56:29.050656","CLASSIFICATION_TYPE":"U","MEAN_MOTION":15.41222703,"ECCENTRICITY":0.0004771,"INCLINATION":99.4445,"RA_OF_ASC_NODE":248.7356,"ARG_OF_PERICENTER":278.7246,"MEAN_ANOMALY":81.3454,"EPHEMERIS_TYPE":0,"NORAD_CAT_ID":57391,"ELEMENT_SET_NO":999,"REV_AT_EPOCH":16623,"BSTAR":0.00034188,"MEAN_MOTION_DOT":0.00014094,"MEAN_MOTION_DDOT":0},{"OBJECT_NAME":"LEMUR-2-BASS","OBJECT_ID":"2023-174D","EPOCH":"2026-07-19T18:03:16.659360","CLASSIFICATION_TYPE":"U","MEAN_MOTION":15.44086347,"ECCENTRICITY":0.0007365,"INCLINATION":97.3837,"RA_OF_ASC_NODE":285.9427,"ARG_OF_PERICENTER":64.5844,"MEAN_ANOMALY":295.6166,"EPHEMERIS_TYPE":0,"NORAD_CAT_ID":58259,"ELEMENT_SET_NO":999,"REV_AT_EPOCH":15038,"BSTAR":0.00021302,"MEAN_MOTION_DOT":0.00009657,"MEAN_MOTION_DDOT":0},{"OBJECT_NAME":"LEMUR-2-JK0903EM1407","OBJECT_ID":"2023-174CJ","EPOCH":"2026-07-19T19:43:55.386048","CLASSIFICATION_TYPE":"U","MEAN_MOTION":15.53221514,"ECCENTRICITY":0.0003114,"INCLINATION":97.3916,"RA_OF_ASC_NODE":292.2502,"ARG_OF_PERICENTER":14.6736,"MEAN_ANOMALY":345.4607,"EPHEMERIS_TYPE":0,"NORAD_CAT_ID":58336,"ELEMENT_SET_NO":999,"REV_AT_EPOCH":15079,"BSTAR":0.00025655,"MEAN_MOTION_DOT":0.00016037,"MEAN_MOTION_DDOT":0},{"OBJECT_NAME":"LEMUR-2-MJR092620","OBJECT_ID":"2023-174CN","EPOCH":"2026-07-19T19:00:00.759744","CLASSIFICATION_TYPE":"U","MEAN_MOTION":15.45964734,"ECCENTRICITY":0.0004856,"INCLINATION":97.3967,"RA_OF_ASC_NODE":291.4475,"ARG_OF_PERICENTER":13.2773,"MEAN_ANOMALY":346.8603,"EPHEMERIS_TYPE":0,"NORAD_CAT_ID":58340,"ELEMENT_SET_NO":999,"REV_AT_EPOCH":15068,"BSTAR":0.00023424,"MEAN_MOTION_DOT":0.00011328,"MEAN_MOTION_DDOT":0},{"OBJECT_NAME":"LEMUR-2-NIMBUS2000","OBJECT_ID":"2024-022A","EPOCH":"2026-07-19T11:43:54.314976","CLASSIFICATION_TYPE":"U","MEAN_MOTION":15.41225793,"ECCENTRICITY":0.00083005,"INCLINATION":97.4081,"RA_OF_ASC_NODE":50.9197,"ARG_OF_PERICENTER":13.844,"MEAN_ANOMALY":346.3033,"EPHEMERIS_TYPE":0,"NORAD_CAT_ID":58899,"ELEMENT_SET_NO":999,"REV_AT_EPOCH":13724,"BSTAR":0.00029171467,"MEAN_MOTION_DOT":0.0001205,"MEAN_MOTION_DDOT":0}]}
